#dP2023  9 26 12  0  0.00000000      96 __u+U ITR00 EXT  IAC
## 2281 216000.00000000   900.00000000 60213 0.5000000000000
+  120   C06C07C08C09C10C11C12C13C14C16C19C20C21C22C23C24C25
+        C26C27C28C29C30C32C33C34C35C36C37C38C39C40C41C42C43
+        C44C45C46E02E03E04E05E07E08E09E10E11E12E13E14E15E18
+        E19E21E24E25E26E27E30E31E33E34E36G01G02G03G04G05G06
+        G07G08G09G10G11G12G13G14G15G16G17G18G19G20G21G22G23
+        G24G25G26G27G28G29G30G31G32J02J03J04R01R02R03R04R05
+        R07R08R09R11R12R13R14R15R16R17R18R19R20R21R22R24R25
+        R26  0  0  0  0  0  0  0  0  0  0  0  0  0  0  0  0
++        11 11  8  9  9 10  9  8 10  9  7  9  9  9  6  9  9
++         8  9 10  8  7  7 10  8  7  7  8 11 10 11  8 11  9
++        10  9  8  8  7  8  7  7  8  8  7  7  8  8  7  7  7
++         7  8  7  8  9  7  7  7  7  7  7  7  8  8  9  8  7
++         7  7  8  7  7  7  7  7  7  7  8  7  8  7  8  7  7
++         8  7  7  6  9  7  7  8  7  9  9  9  8  8  9  8  9
++         8  8  8  7  9  9  7  9  8  8  9  9 10  8  7  9  7
++         0  0  0  0  0  0  0  0  0  0  0  0  0  0  0  0  0
%c M  cc GPS ccc cccc cccc cccc cccc ccccc ccccc ccccc ccccc
%c cc cc ccc ccc cccc cccc cccc cccc ccccc ccccc ccccc ccccc
%f  0.0000000  0.000000000  0.00000000000  0.000000000000000
%f  0.0000000  0.000000000  0.00000000000  0.000000000000000
%i    0    0    0    0      0      0      0      0         0
%i    0    0    0    0      0      0      0      0         0
/* IAC                                ULTRA-RAPID PREDICTION
/* S/V CLOCKS ARE ALIGNED TO GNSS TIME                      
/* G:C1WC2W R:C1PC2P E:C1XC5X C:C2IC6I J:C1CC2S             
/* PCV:IGS20_2280 OL/AL:FES2004  NONE     YN ORB:CoN CLK:CoN
*  2023 09 27  4 45  0.00000000
PC06  -7966.699752  41136.534538   5980.026173     31.991454
PC07  -6898.359967  26950.790395 -31567.203796    -68.049621
PC08 -20018.507239  26468.462112  25850.980233    325.855298
PC09  -5084.593949  42159.615199   -769.207357    114.974048
PC10   1688.784831  29357.424717 -29729.599099   -191.926195
PC11 -15301.582526 -11615.160786 -20180.431026    173.648483
PC12  -8184.268125 -26065.272795  -5694.622426    921.196346
PC13 -12626.601750  27385.235144  29472.466581    358.457507
PC14 -26368.676076  -9221.895711   -125.935885    479.998720
PC16 -11340.103024  39175.307097  11567.407688    -98.847992
PC19  26262.812237   2648.100564  -9015.715591   -970.665843
PC20  23128.358374  13571.335120   7678.142212    251.001296
PC21  -5679.693493 -17245.438345 -21192.281195   -970.438907
PC22  14435.748594 -10430.616887 -21490.865558   -290.455290
PC23 -20480.195853  18905.271720  -1300.113545   -860.121778
PC24 -11929.755483 -11229.196031  22580.643050    434.693917
PC25 -22900.427296   6737.216292  14429.141926    220.129751
PC26   4694.000983 -21224.831040  17504.458241   -183.490714
PC27   3081.519212  27611.921512  -2652.990680    205.088910
PC28  -8340.035545  20508.199702 -16976.746899    154.051566
PC29  16269.309080     82.631082  22669.290563    179.975281
PC30  13985.996324  20149.005108  13317.964373     -5.559886
PC32   5645.472133  17194.292475  21244.784735   -528.367541
PC33 -26327.237655  -2555.608205   8907.522741   -963.096418
PC34 -14524.922144 -18960.401781 -14430.128799    268.408314
PC35   7664.571744 -20766.432178  16966.746930    537.789330
PC36  22863.245476  -5500.196017 -15009.116242   -206.769161
PC37  -5913.394940  21296.703758 -17006.448739   -837.519545
PC38 -25768.157736  27752.651813  18366.547761    107.404412
PC39 -12042.863936  36958.419108  16681.150206     -4.982429
PC40 -10676.461799  20844.746180 -35020.746296    -37.997164
PC41 -15133.134645  10094.062995  21207.678512   -875.829115
PC42 -22297.164123 -14170.519711  -8987.956859   -536.520454
PC43 -16516.325789  -1099.261736 -22472.304260     41.482272
PC44  -4001.505380 -27462.203492   2792.094904    243.921463
PC45  20248.517625 -19133.889301   1853.174626    -29.976275
PC46  12948.711624  10102.352875 -22564.411818    -87.406658
PE02 -21630.269595  -9420.827414  17868.908827     65.848981
PE03 -21150.850391 -19745.507322   6256.534157    -59.756247
PE04  20751.149956   2609.166765 -20947.037540   -221.212178
PE05  -9252.806648 -25398.322772 -12065.526783     22.123205
PE07  -8434.163817  15902.482782  23494.996506    -77.825047
PE08 -20835.904949  -3163.192631  20783.279252   -152.528985
PE09   8420.301049 -15724.639759 -23628.553741   -170.826156
PE10  17841.175666 -17589.175011  15769.255623   -566.785204
PE11  14430.923691 -25045.509211   6362.311076   3000.065955
PE12  18365.034997  -8071.631256  21760.245934   -713.623695
PE13 -14709.240727  24686.151655  -7087.887869    -19.721784
PE14 -23143.467223 -20485.316529  -9095.746875    352.043448
PE15 -18243.966160   7646.590355 -22013.609864    -56.504074
PE18  16034.436176  16770.647953   5017.545211    577.912930
PE19  20130.991934  21348.226704  -3912.051550  -1546.443445
PE21   2321.616314  16621.456121 -24377.294485   -554.990577
PE24  19883.159060 -14330.432350  16604.210589   -343.866958
PE25  -1887.625798 -16687.665462  24384.742518     -2.396554
PE26  -2050.697415  26824.620749  12333.186709    234.377722
PE27 -19315.885962  14573.375284 -17035.831528   -160.104569
PE30 -29366.510479   3603.820098    633.959700   -532.959360
PE31  29332.400470  -3980.374521   -234.781404     -6.081799
PE33  10693.028295  14207.275281  23661.202339     -0.144692
PE34 -11077.482842 -13614.411106 -23844.139259    -69.232798
PE36   2625.509854 -27037.128188 -11761.645794   -121.874333
PG01  14377.400952 -20727.145846   7392.868520    164.625564
PG02  15737.723781 -15918.231837  14661.757146   -549.121883
PG03  18317.028918 -12362.055863 -14799.562607   -112.717391
PG04   7627.499558 -14391.515722 -20947.263255    167.827937
PG05 -26078.406946   5218.540113    811.118287   -144.279639
PG06  -9196.362602 -13407.348548 -20918.250855    542.596412
PG07   3834.193636 -24788.065070   8427.525792     56.114122
PG08  15315.887312  -4792.162141  21149.516939   -144.258904
PG09  -1472.763497 -20649.833342 -16698.233723    -48.619251
PG10  13724.363346  11612.543366  19843.175983    -55.021923
PG11 -16118.332349    -23.183747 -21084.958664   -388.183196
PG12 -21323.930892   9974.797497 -12500.814150   -429.371701
PG13 -17847.029382  -5454.367722  18786.084485    577.317779
PG14  -9875.248572 -13808.628672  20487.481057    196.993697
PG15 -14153.130132   7609.014177  20695.104320     81.454932
PG16  26544.107193   1489.558489  -3743.450348   -448.122917
PG17 -12674.480823 -23074.754801   3424.186670    723.862734
PG18  -3217.776100  24297.535448  10006.131943   -430.517803
PG19 -16824.190077 -20013.714465  -5812.170173    377.039987
PG20 -24220.456878   -436.507605 -10629.202915    409.799462
PG21  16271.959929 -12487.452485  16863.440821    148.064229
PG22 -16279.852203 -11714.710454  17727.755631    113.975649
PG23   -317.859251  15057.847917  21870.762528     74.127274
PG24 -14820.301131  18053.694339  11855.930147   -330.669322
PG25  -8400.523036  15618.309634 -20009.747925    469.848936
PG26  22459.278019   5594.033948 -13461.618146    226.429997
PG27  19929.908949   8250.463611  15513.306277    -46.066550
PG28   8976.756880  15310.549551 -19783.629527    -15.789567
PG29     32.330234  20713.485981 -16609.923531   -609.670964
PG30  -3980.414027 -20810.264494  15978.029762   -484.084044
PG31  14524.171298   5297.734736 -21795.302629   -223.921157
PG32  16628.923007  20845.526617   -422.598172   -564.210190
PJ02 -33771.831671  16375.005917 -14538.220697     -4.676947
PJ03 -22052.780554  30416.626762 -14482.502741     -3.639666
PJ04 -27135.706380  26757.738308  23949.506391     70.800699
PR01 -22339.057066 -12304.243212   -676.675851     66.499410
PR02 -19500.344248  -2550.294779  16239.604889    -22.400180
PR03  -5778.558715   9241.206923  23100.346096     85.984560
PR04  10742.421838  15487.846014  17218.917975    204.474899
PR05  21490.312780  13625.908647   2001.859185    119.669865
PR07   5064.965403  -9613.450646 -23044.236174     65.561075
PR08 -10977.347280 -15479.980897 -16972.769826    -72.690176
PR09  22387.289055 -10000.451743  -6862.691515    144.490208
PR11   2995.324640 -13651.019545  21347.073425   -176.651552
PR12 -14952.842524  -2560.749134  20530.464975     31.724195
PR13 -22297.101864   8567.112656   8938.236460    -39.615518
PR14 -16944.180312  16058.112350 -10288.844098     25.317673
PR15  -1734.335738  13186.580281 -21744.298198     85.856330
PR16  14659.981588   2549.911075 -20695.017047     19.087445
PR17  -5573.723008  21648.067113 -12229.934600     20.650096
PR18   1596.741618  25143.066920   4142.362051    103.963882
PR19   7072.402187  17214.975033  17438.483375   -248.737948
PR20  10355.898810  -4589.023827  22861.522633   -100.727775
PR21   5329.101526 -22188.611768  11439.040790    -41.097489
PR22  -1325.222731 -24965.774675  -5021.505501     86.020676
PR24 -10581.316772   5642.348169 -22491.416651    -25.959956
PR25   6693.891430 -21407.733552  12180.819871     30.954214
PR26 -10693.907324 -15372.181390 -17315.432263    -22.584295
EOF
